<?xml version="1.0" encoding="UTF-8"?>
<gpx version="1.1" creator="DOGYPT" xmlns="http://www.topografix.com/GPX/1/1">
  <metadata><name>Záruby 1 (kostol-čertov žľab-Záruby)</name></metadata>
  <wpt lat="48.50964" lon="17.43241"><name>Parking</name><sym>Parking Area</sym></wpt>
  <trk>
    <name>Záruby 1 (kostol-čertov žľab-Záruby)</name>
    <trkseg>
      <trkpt lat="48.50991" lon="17.43245"/>
      <trkpt lat="48.510048" lon="17.432284"/>
      <trkpt lat="48.510149" lon="17.432176"/>
      <trkpt lat="48.51022" lon="17.432105"/>
      <trkpt lat="48.510304" lon="17.432051"/>
      <trkpt lat="48.510381" lon="17.431988"/>
      <trkpt lat="48.510429" lon="17.431961"/>
      <trkpt lat="48.510482" lon="17.431925"/>
      <trkpt lat="48.510542" lon="17.431907"/>
      <trkpt lat="48.510601" lon="17.431898"/>
      <trkpt lat="48.510625" lon="17.431898"/>
      <trkpt lat="48.510661" lon="17.431898"/>
      <trkpt lat="48.51072" lon="17.431889"/>
      <trkpt lat="48.510964" lon="17.431898"/>
      <trkpt lat="48.511524" lon="17.431979"/>
      <trkpt lat="48.511714" lon="17.432006"/>
      <trkpt lat="48.511797" lon="17.432015"/>
      <trkpt lat="48.511821" lon="17.432006"/>
      <trkpt lat="48.511875" lon="17.431997"/>
      <trkpt lat="48.511976" lon="17.431961"/>
      <trkpt lat="48.512012" lon="17.431934"/>
      <trkpt lat="48.512047" lon="17.431853"/>
      <trkpt lat="48.512095" lon="17.431718"/>
      <trkpt lat="48.512119" lon="17.431619"/>
      <trkpt lat="48.512143" lon="17.431476"/>
      <trkpt lat="48.512178" lon="17.431332"/>
      <trkpt lat="48.512226" lon="17.431179"/>
      <trkpt lat="48.512339" lon="17.430847"/>
      <trkpt lat="48.51247" lon="17.430497"/>
      <trkpt lat="48.512529" lon="17.430353"/>
      <trkpt lat="48.512559" lon="17.430272"/>
      <trkpt lat="48.512565" lon="17.430254"/>
      <trkpt lat="48.512577" lon="17.430209"/>
      <trkpt lat="48.512583" lon="17.430137"/>
      <trkpt lat="48.512583" lon="17.430065"/>
      <trkpt lat="48.512565" lon="17.429976"/>
      <trkpt lat="48.512518" lon="17.42976"/>
      <trkpt lat="48.512512" lon="17.429733"/>
      <trkpt lat="48.512506" lon="17.429679"/>
      <trkpt lat="48.512506" lon="17.429607"/>
      <trkpt lat="48.512512" lon="17.429544"/>
      <trkpt lat="48.512535" lon="17.429437"/>
      <trkpt lat="48.512654" lon="17.429023"/>
      <trkpt lat="48.512809" lon="17.428529"/>
      <trkpt lat="48.512952" lon="17.428116"/>
      <trkpt lat="48.51297" lon="17.42808"/>
      <trkpt lat="48.512988" lon="17.428053"/>
      <trkpt lat="48.512994" lon="17.428053"/>
      <trkpt lat="48.513017" lon="17.428035"/>
      <trkpt lat="48.513047" lon="17.428017"/>
      <trkpt lat="48.513083" lon="17.428008"/>
      <trkpt lat="48.513119" lon="17.428008"/>
      <trkpt lat="48.51316" lon="17.428026"/>
      <trkpt lat="48.513202" lon="17.428062"/>
      <trkpt lat="48.513238" lon="17.428116"/>
      <trkpt lat="48.513339" lon="17.428386"/>
      <trkpt lat="48.514202" lon="17.430865"/>
      <trkpt lat="48.514243" lon="17.430964"/>
      <trkpt lat="48.514202" lon="17.430865"/>
      <trkpt lat="48.514225" lon="17.430874"/>
      <trkpt lat="48.514261" lon="17.430874"/>
      <trkpt lat="48.514297" lon="17.430874"/>
      <trkpt lat="48.514333" lon="17.430856"/>
      <trkpt lat="48.514374" lon="17.43082"/>
      <trkpt lat="48.514452" lon="17.430676"/>
      <trkpt lat="48.514523" lon="17.430452"/>
      <trkpt lat="48.514553" lon="17.430281"/>
      <trkpt lat="48.514582" lon="17.43011"/>
      <trkpt lat="48.5146" lon="17.429913"/>
      <trkpt lat="48.514618" lon="17.42967"/>
      <trkpt lat="48.514618" lon="17.429517"/>
      <trkpt lat="48.514612" lon="17.429347"/>
      <trkpt lat="48.514612" lon="17.429338"/>
      <trkpt lat="48.5146" lon="17.42914"/>
      <trkpt lat="48.5146" lon="17.428916"/>
      <trkpt lat="48.5146" lon="17.42843"/>
      <trkpt lat="48.514594" lon="17.428278"/>
      <trkpt lat="48.514577" lon="17.428107"/>
      <trkpt lat="48.514541" lon="17.427891"/>
      <trkpt lat="48.514529" lon="17.427721"/>
      <trkpt lat="48.514535" lon="17.427505"/>
      <trkpt lat="48.514565" lon="17.42711"/>
      <trkpt lat="48.514565" lon="17.426724"/>
      <trkpt lat="48.514547" lon="17.4264"/>
      <trkpt lat="48.514505" lon="17.426059"/>
      <trkpt lat="48.514469" lon="17.425825"/>
      <trkpt lat="48.514404" lon="17.425439"/>
      <trkpt lat="48.514356" lon="17.42517"/>
      <trkpt lat="48.514338" lon="17.424999"/>
      <trkpt lat="48.514338" lon="17.424801"/>
      <trkpt lat="48.514338" lon="17.424523"/>
      <trkpt lat="48.514327" lon="17.42428"/>
      <trkpt lat="48.514321" lon="17.424119"/>
      <trkpt lat="48.514309" lon="17.423831"/>
      <trkpt lat="48.514297" lon="17.423409"/>
      <trkpt lat="48.514285" lon="17.423076"/>
      <trkpt lat="48.514261" lon="17.422735"/>
      <trkpt lat="48.514243" lon="17.422528"/>
      <trkpt lat="48.514208" lon="17.422331"/>
      <trkpt lat="48.514136" lon="17.422043"/>
      <trkpt lat="48.514112" lon="17.4219"/>
      <trkpt lat="48.514106" lon="17.421711"/>
      <trkpt lat="48.514118" lon="17.421549"/>
      <trkpt lat="48.51413" lon="17.421406"/>
      <trkpt lat="48.514124" lon="17.421298"/>
      <trkpt lat="48.5141" lon="17.421163"/>
      <trkpt lat="48.514065" lon="17.421073"/>
      <trkpt lat="48.514047" lon="17.421028"/>
      <trkpt lat="48.513958" lon="17.420858"/>
      <trkpt lat="48.513868" lon="17.420741"/>
      <trkpt lat="48.513577" lon="17.420462"/>
      <trkpt lat="48.513303" lon="17.420202"/>
      <trkpt lat="48.513202" lon="17.420103"/>
      <trkpt lat="48.513125" lon="17.419995"/>
      <trkpt lat="48.513059" lon="17.419843"/>
      <trkpt lat="48.513053" lon="17.419825"/>
      <trkpt lat="48.513017" lon="17.419726"/>
      <trkpt lat="48.512994" lon="17.419582"/>
      <trkpt lat="48.512976" lon="17.419438"/>
      <trkpt lat="48.51297" lon="17.419169"/>
      <trkpt lat="48.51297" lon="17.418944"/>
      <trkpt lat="48.512982" lon="17.418774"/>
      <trkpt lat="48.513148" lon="17.41801"/>
      <trkpt lat="48.513232" lon="17.417525"/>
      <trkpt lat="48.513297" lon="17.41713"/>
      <trkpt lat="48.513416" lon="17.416833"/>
      <trkpt lat="48.513297" lon="17.41713"/>
      <trkpt lat="48.513309" lon="17.416815"/>
      <trkpt lat="48.513315" lon="17.416519"/>
      <trkpt lat="48.513315" lon="17.416159"/>
      <trkpt lat="48.513303" lon="17.4158"/>
      <trkpt lat="48.513285" lon="17.415495"/>
      <trkpt lat="48.513261" lon="17.41518"/>
      <trkpt lat="48.513202" lon="17.414659"/>
      <trkpt lat="48.513166" lon="17.414255"/>
      <trkpt lat="48.513142" lon="17.41395"/>
      <trkpt lat="48.513113" lon="17.413689"/>
      <trkpt lat="48.513101" lon="17.41359"/>
      <trkpt lat="48.513077" lon="17.413447"/>
      <trkpt lat="48.513077" lon="17.413429"/>
      <trkpt lat="48.513065" lon="17.413339"/>
      <trkpt lat="48.513065" lon="17.413249"/>
      <trkpt lat="48.513077" lon="17.413141"/>
      <trkpt lat="48.513107" lon="17.413042"/>
      <trkpt lat="48.513148" lon="17.41289"/>
      <trkpt lat="48.513214" lon="17.412683"/>
      <trkpt lat="48.513261" lon="17.412485"/>
      <trkpt lat="48.513315" lon="17.412243"/>
      <trkpt lat="48.513351" lon="17.412081"/>
      <trkpt lat="48.513422" lon="17.411883"/>
      <trkpt lat="48.513398" lon="17.411695"/>
      <trkpt lat="48.513249" lon="17.410177"/>
      <trkpt lat="48.513232" lon="17.409817"/>
      <trkpt lat="48.51322" lon="17.409772"/>
      <trkpt lat="48.512988" lon="17.409108"/>
      <trkpt lat="48.512708" lon="17.408452"/>
      <trkpt lat="48.512744" lon="17.408416"/>
      <trkpt lat="48.512869" lon="17.408272"/>
      <trkpt lat="48.513154" lon="17.408021"/>
      <trkpt lat="48.51338" lon="17.407877"/>
      <trkpt lat="48.513464" lon="17.407832"/>
      <trkpt lat="48.513535" lon="17.407823"/>
      <trkpt lat="48.513607" lon="17.407814"/>
      <trkpt lat="48.513648" lon="17.407814"/>
      <trkpt lat="48.513684" lon="17.407787"/>
      <trkpt lat="48.513726" lon="17.407751"/>
      <trkpt lat="48.513761" lon="17.408075"/>
      <trkpt lat="48.513726" lon="17.407751"/>
      <trkpt lat="48.513696" lon="17.407491"/>
      <trkpt lat="48.513577" lon="17.406556"/>
      <trkpt lat="48.513547" lon="17.405856"/>
      <trkpt lat="48.513529" lon="17.405532"/>
      <trkpt lat="48.513482" lon="17.405056"/>
      <trkpt lat="48.513464" lon="17.404859"/>
      <trkpt lat="48.51344" lon="17.404481"/>
      <trkpt lat="48.513416" lon="17.404032"/>
      <trkpt lat="48.513386" lon="17.403646"/>
      <trkpt lat="48.513345" lon="17.402873"/>
      <trkpt lat="48.513327" lon="17.402631"/>
      <trkpt lat="48.513297" lon="17.402415"/>
      <trkpt lat="48.513244" lon="17.402155"/>
      <trkpt lat="48.513166" lon="17.401732"/>
      <trkpt lat="48.513065" lon="17.40122"/>
      <trkpt lat="48.512994" lon="17.400744"/>
      <trkpt lat="48.512904" lon="17.400151"/>
      <trkpt lat="48.512869" lon="17.399927"/>
      <trkpt lat="48.512851" lon="17.39981"/>
      <trkpt lat="48.512845" lon="17.399648"/>
      <trkpt lat="48.512845" lon="17.399595"/>
      <trkpt lat="48.512845" lon="17.399433"/>
      <trkpt lat="48.512892" lon="17.399415"/>
      <trkpt lat="48.512946" lon="17.399424"/>
      <trkpt lat="48.512994" lon="17.39946"/>
      <trkpt lat="48.513178" lon="17.399648"/>
      <trkpt lat="48.513291" lon="17.399765"/>
      <trkpt lat="48.513392" lon="17.399837"/>
      <trkpt lat="48.513845" lon="17.400151"/>
      <trkpt lat="48.514196" lon="17.40052"/>
      <trkpt lat="48.514416" lon="17.400816"/>
      <trkpt lat="48.514696" lon="17.401292"/>
      <trkpt lat="48.514743" lon="17.401391"/>
      <trkpt lat="48.514815" lon="17.401652"/>
      <trkpt lat="48.514862" lon="17.40175"/>
      <trkpt lat="48.514892" lon="17.401813"/>
      <trkpt lat="48.515005" lon="17.401993"/>
      <trkpt lat="48.515124" lon="17.402092"/>
      <trkpt lat="48.515249" lon="17.40211"/>
      <trkpt lat="48.515314" lon="17.402119"/>
      <trkpt lat="48.51538" lon="17.402164"/>
      <trkpt lat="48.515439" lon="17.402236"/>
      <trkpt lat="48.515493" lon="17.402316"/>
      <trkpt lat="48.515618" lon="17.402595"/>
      <trkpt lat="48.515707" lon="17.402775"/>
      <trkpt lat="48.515737" lon="17.402837"/>
      <trkpt lat="48.51579" lon="17.402927"/>
      <trkpt lat="48.515832" lon="17.402945"/>
      <trkpt lat="48.515862" lon="17.402963"/>
      <trkpt lat="48.515915" lon="17.402963"/>
      <trkpt lat="48.515969" lon="17.402954"/>
      <trkpt lat="48.516023" lon="17.402945"/>
      <trkpt lat="48.51613" lon="17.402891"/>
      <trkpt lat="48.516195" lon="17.402864"/>
      <trkpt lat="48.516266" lon="17.40281"/>
      <trkpt lat="48.516278" lon="17.402801"/>
      <trkpt lat="48.516344" lon="17.402748"/>
      <trkpt lat="48.516439" lon="17.402649"/>
      <trkpt lat="48.516505" lon="17.402613"/>
      <trkpt lat="48.5166" lon="17.402586"/>
      <trkpt lat="48.516737" lon="17.402577"/>
      <trkpt lat="48.516885" lon="17.402577"/>
      <trkpt lat="48.516951" lon="17.402604"/>
      <trkpt lat="48.517004" lon="17.402622"/>
      <trkpt lat="48.517076" lon="17.402685"/>
      <trkpt lat="48.517123" lon="17.402622"/>
      <trkpt lat="48.517189" lon="17.402523"/>
      <trkpt lat="48.51726" lon="17.402388"/>
      <trkpt lat="48.517302" lon="17.402325"/>
      <trkpt lat="48.517361" lon="17.402262"/>
      <trkpt lat="48.517421" lon="17.402254"/>
      <trkpt lat="48.517445" lon="17.402236"/>
      <trkpt lat="48.517457" lon="17.402191"/>
      <trkpt lat="48.517451" lon="17.402137"/>
      <trkpt lat="48.517468" lon="17.402038"/>
      <trkpt lat="48.517528" lon="17.401903"/>
      <trkpt lat="48.517599" lon="17.40184"/>
      <trkpt lat="48.517623" lon="17.401777"/>
      <trkpt lat="48.517635" lon="17.401759"/>
      <trkpt lat="48.517689" lon="17.40175"/>
      <trkpt lat="48.51773" lon="17.401724"/>
      <trkpt lat="48.517861" lon="17.401589"/>
      <trkpt lat="48.517933" lon="17.401508"/>
      <trkpt lat="48.518004" lon="17.401427"/>
      <trkpt lat="48.51804" lon="17.4014"/>
      <trkpt lat="48.518165" lon="17.401409"/>
      <trkpt lat="48.5182" lon="17.401409"/>
      <trkpt lat="48.518296" lon="17.401382"/>
      <trkpt lat="48.518331" lon="17.401373"/>
      <trkpt lat="48.518385" lon="17.401328"/>
      <trkpt lat="48.51848" lon="17.40122"/>
      <trkpt lat="48.518563" lon="17.401149"/>
      <trkpt lat="48.518623" lon="17.40105"/>
      <trkpt lat="48.518641" lon="17.401005"/>
      <trkpt lat="48.518641" lon="17.400978"/>
      <trkpt lat="48.518659" lon="17.40096"/>
      <trkpt lat="48.518688" lon="17.400951"/>
      <trkpt lat="48.518778" lon="17.400897"/>
      <trkpt lat="48.518849" lon="17.400834"/>
      <trkpt lat="48.518897" lon="17.400798"/>
      <trkpt lat="48.518926" lon="17.400744"/>
      <trkpt lat="48.518956" lon="17.400708"/>
      <trkpt lat="48.519004" lon="17.400681"/>
      <trkpt lat="48.519069" lon="17.400646"/>
      <trkpt lat="48.519135" lon="17.400637"/>
      <trkpt lat="48.519164" lon="17.400646"/>
      <trkpt lat="48.519194" lon="17.400663"/>
      <trkpt lat="48.51923" lon="17.400663"/>
      <trkpt lat="48.519254" lon="17.400655"/>
      <trkpt lat="48.519271" lon="17.400637"/>
      <trkpt lat="48.519295" lon="17.400601"/>
      <trkpt lat="48.519325" lon="17.400556"/>
      <trkpt lat="48.519337" lon="17.400538"/>
      <trkpt lat="48.519361" lon="17.400538"/>
      <trkpt lat="48.519408" lon="17.400538"/>
      <trkpt lat="48.519474" lon="17.40052"/>
      <trkpt lat="48.519569" lon="17.400493"/>
      <trkpt lat="48.519628" lon="17.400466"/>
      <trkpt lat="48.51967" lon="17.400448"/>
      <trkpt lat="48.519747" lon="17.400349"/>
      <trkpt lat="48.519837" lon="17.400196"/>
      <trkpt lat="48.519896" lon="17.400089"/>
      <trkpt lat="48.519926" lon="17.399999"/>
      <trkpt lat="48.519956" lon="17.399873"/>
      <trkpt lat="48.519997" lon="17.399855"/>
      <trkpt lat="48.520051" lon="17.399855"/>
      <trkpt lat="48.520081" lon="17.399819"/>
      <trkpt lat="48.520134" lon="17.399801"/>
      <trkpt lat="48.520176" lon="17.399738"/>
      <trkpt lat="48.520206" lon="17.399666"/>
      <trkpt lat="48.520235" lon="17.399586"/>
      <trkpt lat="48.520283" lon="17.399514"/>
      <trkpt lat="48.520289" lon="17.399496"/>
      <trkpt lat="48.520277" lon="17.399415"/>
      <trkpt lat="48.520295" lon="17.399343"/>
      <trkpt lat="48.520348" lon="17.399163"/>
      <trkpt lat="48.520396" lon="17.39902"/>
      <trkpt lat="48.520414" lon="17.39893"/>
      <trkpt lat="48.520432" lon="17.398642"/>
      <trkpt lat="48.520432" lon="17.398597"/>
      <trkpt lat="48.52042" lon="17.398454"/>
      <trkpt lat="48.520432" lon="17.398346"/>
      <trkpt lat="48.520455" lon="17.398292"/>
      <trkpt lat="48.520503" lon="17.398238"/>
      <trkpt lat="48.520533" lon="17.398184"/>
      <trkpt lat="48.520545" lon="17.398112"/>
      <trkpt lat="48.520551" lon="17.398013"/>
      <trkpt lat="48.520563" lon="17.397978"/>
      <trkpt lat="48.520598" lon="17.397942"/>
      <trkpt lat="48.520682" lon="17.397924"/>
      <trkpt lat="48.520753" lon="17.397861"/>
      <trkpt lat="48.52086" lon="17.397852"/>
      <trkpt lat="48.520991" lon="17.397834"/>
      <trkpt lat="48.521134" lon="17.397852"/>
      <trkpt lat="48.521181" lon="17.397861"/>
      <trkpt lat="48.521223" lon="17.397816"/>
      <trkpt lat="48.521223" lon="17.397816"/>
      <trkpt lat="48.521229" lon="17.397762"/>
      <trkpt lat="48.521217" lon="17.397573"/>
      <trkpt lat="48.521181" lon="17.397474"/>
      <trkpt lat="48.52105" lon="17.397295"/>
      <trkpt lat="48.520973" lon="17.397187"/>
      <trkpt lat="48.52089" lon="17.397124"/>
      <trkpt lat="48.520807" lon="17.397034"/>
      <trkpt lat="48.520699" lon="17.396944"/>
      <trkpt lat="48.520616" lon="17.396819"/>
      <trkpt lat="48.520563" lon="17.396657"/>
      <trkpt lat="48.520497" lon="17.396495"/>
      <trkpt lat="48.520473" lon="17.396396"/>
      <trkpt lat="48.520467" lon="17.39628"/>
      <trkpt lat="48.520503" lon="17.396118"/>
      <trkpt lat="48.520503" lon="17.396118"/>
      <trkpt lat="48.520503" lon="17.396019"/>
      <trkpt lat="48.520414" lon="17.395786"/>
      <trkpt lat="48.520307" lon="17.395444"/>
      <trkpt lat="48.520289" lon="17.395354"/>
      <trkpt lat="48.520277" lon="17.395283"/>
      <trkpt lat="48.520265" lon="17.395211"/>
      <trkpt lat="48.520259" lon="17.395112"/>
      <trkpt lat="48.520223" lon="17.394717"/>
      <trkpt lat="48.520253" lon="17.394645"/>
      <trkpt lat="48.520271" lon="17.394591"/>
      <trkpt lat="48.520336" lon="17.39451"/>
      <trkpt lat="48.520432" lon="17.394474"/>
      <trkpt lat="48.520479" lon="17.394438"/>
      <trkpt lat="48.520521" lon="17.394402"/>
      <trkpt lat="48.520604" lon="17.394312"/>
      <trkpt lat="48.520705" lon="17.394259"/>
      <trkpt lat="48.520884" lon="17.394267"/>
      <trkpt lat="48.52105" lon="17.394285"/>
      <trkpt lat="48.521306" lon="17.394366"/>
      <trkpt lat="48.521372" lon="17.394393"/>
      <trkpt lat="48.521503" lon="17.394501"/>
      <trkpt lat="48.521705" lon="17.394645"/>
      <trkpt lat="48.521788" lon="17.394708"/>
      <trkpt lat="48.521812" lon="17.394717"/>
      <trkpt lat="48.52183" lon="17.394681"/>
      <trkpt lat="48.521854" lon="17.394591"/>
      <trkpt lat="48.52186" lon="17.394546"/>
      <trkpt lat="48.521877" lon="17.394537"/>
      <trkpt lat="48.521919" lon="17.394582"/>
      <trkpt lat="48.521943" lon="17.3946"/>
      <trkpt lat="48.521973" lon="17.394618"/>
      <trkpt lat="48.521991" lon="17.394609"/>
      <trkpt lat="48.522008" lon="17.394573"/>
      <trkpt lat="48.522032" lon="17.394528"/>
      <trkpt lat="48.522056" lon="17.394528"/>
      <trkpt lat="48.522098" lon="17.394537"/>
      <trkpt lat="48.522163" lon="17.394555"/>
      <trkpt lat="48.522205" lon="17.3946"/>
      <trkpt lat="48.522276" lon="17.394681"/>
      <trkpt lat="48.522359" lon="17.394797"/>
      <trkpt lat="48.522359" lon="17.394797"/>
      <trkpt lat="48.522407" lon="17.394842"/>
      <trkpt lat="48.522419" lon="17.394833"/>
      <trkpt lat="48.522437" lon="17.394771"/>
      <trkpt lat="48.522449" lon="17.394726"/>
      <trkpt lat="48.522443" lon="17.394681"/>
      <trkpt lat="48.522413" lon="17.394582"/>
      <trkpt lat="48.522419" lon="17.39451"/>
      <trkpt lat="48.522443" lon="17.394465"/>
      <trkpt lat="48.522472" lon="17.394348"/>
      <trkpt lat="48.522502" lon="17.394187"/>
      <trkpt lat="48.52252" lon="17.394187"/>
      <trkpt lat="48.522586" lon="17.394241"/>
      <trkpt lat="48.522603" lon="17.39425"/>
      <trkpt lat="48.522603" lon="17.39425"/>
      <trkpt lat="48.522621" lon="17.394223"/>
      <trkpt lat="48.522633" lon="17.394205"/>
      <trkpt lat="48.522675" lon="17.394232"/>
      <trkpt lat="48.522693" lon="17.394259"/>
      <trkpt lat="48.522699" lon="17.394285"/>
      <trkpt lat="48.52271" lon="17.39433"/>
      <trkpt lat="48.522788" lon="17.394483"/>
      <trkpt lat="48.522907" lon="17.394654"/>
      <trkpt lat="48.52299" lon="17.394762"/>
      <trkpt lat="48.523067" lon="17.394744"/>
      <trkpt lat="48.523091" lon="17.394753"/>
      <trkpt lat="48.523097" lon="17.39478"/>
      <trkpt lat="48.523109" lon="17.394797"/>
      <trkpt lat="48.523109" lon="17.394797"/>
      <trkpt lat="48.523198" lon="17.394833"/>
      <trkpt lat="48.523216" lon="17.394833"/>
      <trkpt lat="48.523228" lon="17.394806"/>
      <trkpt lat="48.52324" lon="17.394771"/>
      <trkpt lat="48.523252" lon="17.394753"/>
      <trkpt lat="48.523282" lon="17.394699"/>
      <trkpt lat="48.523288" lon="17.394645"/>
      <trkpt lat="48.523276" lon="17.394555"/>
      <trkpt lat="48.523282" lon="17.394528"/>
      <trkpt lat="48.523305" lon="17.394528"/>
      <trkpt lat="48.523353" lon="17.394537"/>
      <trkpt lat="48.523383" lon="17.394537"/>
      <trkpt lat="48.523395" lon="17.39451"/>
      <trkpt lat="48.523413" lon="17.394348"/>
      <trkpt lat="48.523418" lon="17.39433"/>
      <trkpt lat="48.523442" lon="17.394312"/>
      <trkpt lat="48.523532" lon="17.394276"/>
      <trkpt lat="48.523627" lon="17.394088"/>
      <trkpt lat="48.523627" lon="17.394088"/>
      <trkpt lat="48.523639" lon="17.394034"/>
      <trkpt lat="48.523656" lon="17.393971"/>
      <trkpt lat="48.523656" lon="17.393827"/>
      <trkpt lat="48.523645" lon="17.393737"/>
      <trkpt lat="48.523639" lon="17.393603"/>
      <trkpt lat="48.523639" lon="17.393513"/>
      <trkpt lat="48.523633" lon="17.393441"/>
      <trkpt lat="48.523645" lon="17.39336"/>
      <trkpt lat="48.523728" lon="17.393073"/>
      <trkpt lat="48.52374" lon="17.39301"/>
      <trkpt lat="48.523728" lon="17.392956"/>
      <trkpt lat="48.523722" lon="17.392911"/>
      <trkpt lat="48.523668" lon="17.392857"/>
      <trkpt lat="48.523543" lon="17.392722"/>
      <trkpt lat="48.523502" lon="17.392651"/>
      <trkpt lat="48.523472" lon="17.392615"/>
      <trkpt lat="48.52346" lon="17.392552"/>
      <trkpt lat="48.523454" lon="17.39248"/>
      <trkpt lat="48.52346" lon="17.392444"/>
    </trkseg>
  </trk>
</gpx>
